ORBCOMM FM115 [+]       
1 41186U 15081H   23264.89679134  .00001266  00000+0  29733-3 0  9990
2 41186  46.9991 169.6987 0000794 351.0019   9.0853 14.59908203415012
ORBCOMM FM108 [+]       
1 41187U 15081J   23265.11978112  .00001364  00000+0  34525-3 0  9999
2 41187  47.0043 215.7217 0003236 293.8295  66.2250 14.55904520414418
ORBCOMM FM117 [+]       
1 41188U 15081K   23264.67320227  .00001304  00000+0  33182-3 0  9990
2 41188  47.0003 216.7889 0003931 299.7601  60.2892 14.55889594414317
ORBCOMM FM116 [+]       
1 41189U 15081L   23264.80049783  .00001224  00000+0  31378-3 0  9997
2 41189  47.0025 305.9999 0001815 350.7154   9.3697 14.55899120413148
